COSMOS 2242             
1 22626U 93024A   26070.04002047  .00002039  00000+0  17671-3 0  9996
2 22626  82.5156 265.4245 0015104 303.9391  56.0394 14.96555226780595
SL-16 R/B               
1 22803U 93059B   26070.17085296 -.00000121  00000+0 -35844-4 0  9997
2 22803  70.9928   8.0024 0018468 214.4398 145.5531 14.17231414679749
ARIANE 40 R/B           
1 22830U 93061H   26070.16501389  .00000233  00000+0  10120-3 0  9996
2 22830  98.4912 139.0235 0009571 280.2350  79.7755 14.32861856694312
COSMOS 2278             
1 23087U 94023A   26070.22435417  .00000052  00000+0  51604-4 0  9997
2 23087  71.0553 171.8870 0008154  10.1433 349.9852 14.14379343645021
SL-16 R/B               
1 23088U 94023B   26070.19943601 -.00000239  00000+0 -98582-4 0  9998
2 23088  70.9985  67.7161 0005700 284.1015  75.9474 14.15011304646307
SL-16 R/B               
1 23343U 94074B   26070.07169470  .00000561  00000+0  81763-4 0  9998
2 23343  97.7108 100.8334 0005885 205.2630 179.6850 14.79409735687457
SL-16 R/B               
1 23405U 94077B   26070.18047940  .00000049  00000+0  49476-4 0  9995
2 23405  70.9853 349.3531 0003016 210.2295 149.8654 14.15561390616440
ARIANE 40+ R/B          
1 23561U 95021B   26070.19898775  .00000343  00000+0  12334-3 0  9998
2 23561  98.4493 141.6609 0007684 132.4745 248.5694 14.39773709619468
SL-16 R/B               
1 23705U 95058B   26069.69287551  .00000336  00000+0  19609-3 0  9999
2 23705  71.0222 178.1490 0010774 123.8863 236.3286 14.15496012567992
SL-16 R/B               
1 24298U 96051B   26070.22832017  .00000090  00000+0  75497-4 0  9990
2 24298  70.7603 171.9820 0014976 145.7527 214.4561 14.12416098521867
ORBVIEW 2 (SEASTAR)     
1 24883U 97037A   26070.16044237  .00000360  00000+0  14128-3 0  9990
2 24883  98.8571 234.5112 0003062  68.9544 291.1968 14.35496134508683
SL-16 R/B               
1 25400U 98043G   26069.85421201  .00000099  00000+0  60287-4 0  9995
2 25400  98.8253  23.2258 0010161  17.2309 342.9213 14.26050139439158
